OBJECT_NAME,OBJECT_ID,EPOCH,MEAN_MOTION,ECCENTRICITY,INCLINATION,RA_OF_ASC_NODE,ARG_OF_PERICENTER,MEAN_ANOMALY,EPHEMERIS_TYPE,CLASSIFICATION_TYPE,NORAD_CAT_ID,ELEMENT_SET_NO,REV_AT_EPOCH,BSTAR,MEAN_MOTION_DOT,MEAN_MOTION_DDOT
STARLINK-6355,2023-099AE,2026-06-28T19:51:36.008640,15.27569576,.00020528,43.0053,334.2694,273.3249,86.7367,0,U,57356,999,16319,-.26086701E-4,-.98E-5,0
STARLINK-5600,2023-099AF,2026-06-28T19:09:02.845440,15.27572684,.00013758,43.0039,334.0514,268.7974,91.2720,0,U,57357,999,16319,.38966035E-4,.81E-5,0
STARLINK-6299,2023-099AG,2026-06-28T20:13:35.834304,15.27577430,.00014079,43.0032,333.5344,267.3532,92.7159,0,U,57358,999,16394,.59501084E-4,.1375E-4,0
STARLINK-6347,2023-099AH,2026-06-28T19:38:39.466176,15.27582367,.00018871,43.0048,334.2064,294.2030,65.8624,0,U,57359,999,16319,.87279456E-4,.214E-4,0
STARLINK-6348,2023-099AJ,2026-06-28T18:50:32.526816,15.27574559,.00014203,43.0013,333.9552,275.2937,84.7753,0,U,57360,999,16319,.52709597E-4,.1188E-4,0
STARLINK-6340,2023-099AK,2026-06-28T20:02:42.213984,15.27594070,.00015758,43.0031,334.3205,271.4617,88.6054,0,U,57361,999,16319,.99751315E-4,.2485E-4,0
STARLINK-6343,2023-099AL,2026-06-28T20:30:14.556096,15.27580255,.00012238,43.0040,333.6102,272.5141,87.5570,0,U,57362,999,16319,.59071214E-4,.1364E-4,0
STARLINK-6356,2023-099AM,2026-06-28T18:45:01.612224,15.27552052,.00011622,43.0019,333.9219,268.2880,91.7838,0,U,57363,999,16319,-.95421689E-4,-.2884E-4,0
STARLINK-6338,2023-099AN,2026-06-28T19:01:39.602208,15.27559856,.00009464,43.0023,334.0086,269.8963,90.1781,0,U,57364,999,16318,-.46133788E-4,-.153E-4,0
STARLINK-5007,2023-099AP,2026-06-28T19:27:32.764032,15.27574564,.00014011,43.0052,334.1352,268.3646,91.7046,0,U,57365,999,16319,.60965512E-4,.1415E-4,0
STARLINK-6174,2023-099AQ,2026-06-28T19:21:59.520096,15.27578595,.00012339,43.0047,334.1126,274.8083,85.2628,0,U,57366,999,16319,.46974306E-4,.1031E-4,0
STARLINK-6215,2023-099AR,2026-06-28T18:35:19.282272,15.27574450,.00015232,43.0053,315.7353,265.7769,94.2909,0,U,57367,999,16415,.47196502E-4,.1036E-4,0
STARLINK-6218,2023-099AS,2026-06-28T11:42:19.038240,15.27575279,.00018843,43.0055,336.0169,275.9570,84.1067,0,U,57368,999,16314,.39021775E-4,.811E-5,0
STARLINK-6168,2023-099AT,2026-06-28T20:22:33.657888,15.29229898,.00027238,43.0029,333.5720,306.5292,53.5309,0,U,57369,999,16320,.12936271E-2,.37369E-3,0
STARLINK-5353,2023-099AU,2026-06-28T11:51:35.280576,15.27565490,.00014588,43.0047,336.0617,275.4468,84.6217,0,U,57370,999,16314,.9835613E-4,.2444E-4,0
STARLINK-6032,2023-099AV,2026-06-28T19:16:26.616576,15.27576766,.0001125,43.0037,334.0857,275.5395,84.5328,0,U,57371,999,16319,.24709263E-4,.418E-5,0
STARLINK-5975,2023-099AW,2026-06-28T18:24:50.328288,15.27580998,.00015584,43.0037,334.6573,273.3289,86.7384,0,U,57372,999,16318,.54130132E-4,.1228E-4,0
STARLINK-6370,2023-099AX,2026-06-28T19:49:45.371712,15.27568757,.00018913,43.0054,334.2472,272.1965,87.8670,0,U,57373,999,16319,.85622045E-4,.2094E-4,0
STARLINK-6369,2023-099AY,2026-06-28T18:13:20.226432,15.27579860,.00018724,43.0040,316.4950,260.4327,99.6314,0,U,57374,999,16339,-.500525E-5,-.4E-5,0
STARLINK-6363,2023-099AZ,2026-06-28T11:57:07.267392,15.27572539,.00017402,43.0055,336.0879,271.0749,88.9903,0,U,57375,999,16314,.88249111E-4,.2166E-4,0
STARLINK-6367,2023-099BA,2026-06-28T20:49:27.410304,15.27585035,.00024107,43.0037,330.3031,257.6920,102.3662,0,U,57376,999,16324,.33051115E-3,.8845E-4,0
STARLINK-6358,2023-099BB,2026-06-28T21:30:36.362880,15.27574794,.00014213,43.0033,337.3472,274.7249,85.3440,0,U,57377,999,16315,.64825547E-4,.1522E-4,0
STARLINK-6364,2023-099BC,2026-06-28T18:13:20.626464,15.27596506,.00015054,43.0015,305.1977,282.0472,78.0210,0,U,57378,999,16426,.12241057E-3,.3109E-4,0
STARLINK-6361,2023-099BD,2026-06-28T03:28:11.346528,15.27574992,.00011465,43.0042,334.3327,271.9514,88.1207,0,U,57379,999,16313,.10000197E-4,.13E-6,0
STARLINK-6366,2023-099BE,2026-06-28T18:18:54.053568,15.27573118,.00012688,43.0029,305.2159,289.8290,70.2425,0,U,57380,999,16425,.2642897E-5,-.189E-5,0
STARLINK-6371,2023-099BF,2026-06-28T18:07:46.247232,15.27577351,.00012868,43.0039,316.4543,283.0020,77.0688,0,U,57381,999,16413,.38972906E-4,.81E-5,0
STARLINK-30240,2023-102A,2026-06-28T17:48:17.968896,15.27579819,.00014347,43.0025,341.4423,266.9427,93.1261,0,U,57404,999,16322,.52938038E-4,.1195E-4,0
STARLINK-30195,2023-102C,2026-06-28T22:00:01.999584,15.46072255,.00018106,43.0035,346.3716,291.4979,332.4458,0,U,57406,999,581,.14675584E-1,.791823E-2,0
STARLINK-30207,2023-102D,2026-06-28T19:32:27.827808,15.27565366,.00012187,43.0046,326.4980,259.7726,100.2989,0,U,57407,999,16341,.10592878E-3,.2653E-4,0
STARLINK-30205,2023-102E,2026-06-28T12:03:06.245568,15.27587030,.00011608,43.0069,343.0823,267.2305,92.8414,0,U,57408,999,16318,.98117607E-4,.2439E-4,0
