[
  {
    "name": "STARLINK-6355",
    "noradId": "57356",
    "line1": "1 57356U 23099AE  26179.82750010 -.00000980  00000+0 -26087-4 0  9992",
    "line2": "2 57356  43.0053 334.2694 0002052 273.3249  86.7367 15.27569576163193"
  },
  {
    "name": "STARLINK-5600",
    "noradId": "57357",
    "line1": "1 57357U 23099AF  26179.79794960  .00000810  00000+0  38966-4 0  9990",
    "line2": "2 57357  43.0039 334.0514 0001375 268.7974  91.2720 15.27572684163195"
  },
  {
    "name": "STARLINK-6299",
    "noradId": "57358",
    "line1": "1 57358U 23099AG  26179.84277586  .00001375  00000+0  59501-4 0  9992",
    "line2": "2 57358  43.0032 333.5344 0001407 267.3532  92.7159 15.27577430163944"
  },
  {
    "name": "STARLINK-6347",
    "noradId": "57359",
    "line1": "1 57359U 23099AH  26179.81851234  .00002140  00000+0  87279-4 0  9992",
    "line2": "2 57359  43.0048 334.2064 0001887 294.2030  65.8624 15.27582367163193"
  },
  {
    "name": "STARLINK-6348",
    "noradId": "57360",
    "line1": "1 57360U 23099AJ  26179.78509869  .00001188  00000+0  52710-4 0  9997",
    "line2": "2 57360  43.0013 333.9552 0001420 275.2937  84.7753 15.27574559163190"
  },
  {
    "name": "STARLINK-6340",
    "noradId": "57361",
    "line1": "1 57361U 23099AK  26179.83521081  .00002485  00000+0  99751-4 0  9991",
    "line2": "2 57361  43.0031 334.3205 0001575 271.4617  88.6054 15.27594070163192"
  },
  {
    "name": "STARLINK-6343",
    "noradId": "57362",
    "line1": "1 57362U 23099AL  26179.85433514  .00001364  00000+0  59071-4 0  9993",
    "line2": "2 57362  43.0040 333.6102 0001223 272.5141  87.5570 15.27580255163196"
  },
  {
    "name": "STARLINK-6356",
    "noradId": "57363",
    "line1": "1 57363U 23099AM  26179.78126866 -.00002884  00000+0 -95422-4 0  9995",
    "line2": "2 57363  43.0019 333.9219 0001162 268.2880  91.7838 15.27552052163197"
  },
  {
    "name": "STARLINK-6338",
    "noradId": "57364",
    "line1": "1 57364U 23099AN  26179.79281947 -.00001530  00000+0 -46134-4 0  9992",
    "line2": "2 57364  43.0023 334.0086 0000946 269.8963  90.1781 15.27559856163183"
  },
  {
    "name": "STARLINK-5007",
    "noradId": "57365",
    "line1": "1 57365U 23099AP  26179.81079588  .00001415  00000+0  60966-4 0  9991",
    "line2": "2 57365  43.0052 334.1352 0001401 268.3646  91.7046 15.27574564163197"
  },
  {
    "name": "STARLINK-6174",
    "noradId": "57366",
    "line1": "1 57366U 23099AQ  26179.80693889  .00001031  00000+0  46974-4 0  9994",
    "line2": "2 57366  43.0047 334.1126 0001233 274.8083  85.2628 15.27578595163193"
  },
  {
    "name": "STARLINK-6215",
    "noradId": "57367",
    "line1": "1 57367U 23099AR  26179.77452873  .00001036  00000+0  47197-4 0  9990",
    "line2": "2 57367  43.0053 315.7353 0001523 265.7769  94.2909 15.27574450164155"
  },
  {
    "name": "STARLINK-6218",
    "noradId": "57368",
    "line1": "1 57368U 23099AS  26179.48772035  .00000811  00000+0  39022-4 0  9992",
    "line2": "2 57368  43.0055 336.0169 0001884 275.9570  84.1067 15.27575279163143"
  },
  {
    "name": "STARLINK-6168",
    "noradId": "57369",
    "line1": "1 57369U 23099AT  26179.84900067  .00037369  00000+0  12936-2 0  9992",
    "line2": "2 57369  43.0029 333.5720 0002723 306.5292  53.5309 15.29229898163206"
  },
  {
    "name": "STARLINK-5353",
    "noradId": "57370",
    "line1": "1 57370U 23099AU  26179.49415834  .00002444  00000+0  98356-4 0  9996",
    "line2": "2 57370  43.0047 336.0617 0001458 275.4468  84.6217 15.27565490163149"
  },
  {
    "name": "STARLINK-6032",
    "noradId": "57371",
    "line1": "1 57371U 23099AV  26179.80308584  .00000418  00000+0  24709-4 0  9995",
    "line2": "2 57371  43.0037 334.0857 0001125 275.5395  84.5328 15.27576766163199"
  },
  {
    "name": "STARLINK-5975",
    "noradId": "57372",
    "line1": "1 57372U 23099AW  26179.76724917  .00001228  00000+0  54130-4 0  9994",
    "line2": "2 57372  43.0037 334.6573 0001558 273.3289  86.7384 15.27580998163186"
  },
  {
    "name": "STARLINK-6370",
    "noradId": "57373",
    "line1": "1 57373U 23099AX  26179.82621958  .00002094  00000+0  85622-4 0  9995",
    "line2": "2 57373  43.0054 334.2472 0001891 272.1965  87.8670 15.27568757163198"
  },
  {
    "name": "STARLINK-6369",
    "noradId": "57374",
    "line1": "1 57374U 23099AY  26179.75926188 -.00000400  00000+0 -50053-5 0  9993",
    "line2": "2 57374  43.0040 316.4950 0001872 260.4327  99.6314 15.27579860163393"
  },
  {
    "name": "STARLINK-6363",
    "noradId": "57375",
    "line1": "1 57375U 23099AZ  26179.49800078  .00002166  00000+0  88249-4 0  9990",
    "line2": "2 57375  43.0055 336.0879 0001740 271.0749  88.9903 15.27572539163142"
  },
  {
    "name": "STARLINK-6367",
    "noradId": "57376",
    "line1": "1 57376U 23099BA  26179.86767836  .00008845  00000+0  33051-3 0  9996",
    "line2": "2 57376  43.0037 330.3031 0002410 257.6920 102.3662 15.27585035163245"
  },
  {
    "name": "STARLINK-6358",
    "noradId": "57377",
    "line1": "1 57377U 23099BB  26179.89625420  .00001522  00000+0  64826-4 0  9992",
    "line2": "2 57377  43.0033 337.3472 0001421 274.7249  85.3440 15.27574794163157"
  },
  {
    "name": "STARLINK-6364",
    "noradId": "57378",
    "line1": "1 57378U 23099BC  26179.75926651  .00003109  00000+0  12241-3 0  9994",
    "line2": "2 57378  43.0015 305.1977 0001505 282.0472  78.0210 15.27596506164266"
  },
  {
    "name": "STARLINK-6361",
    "noradId": "57379",
    "line1": "1 57379U 23099BD  26179.14457577  .00000013  00000+0  10000-4 0  9997",
    "line2": "2 57379  43.0042 334.3327 0001146 271.9514  88.1207 15.27574992163133"
  },
  {
    "name": "STARLINK-6366",
    "noradId": "57380",
    "line1": "1 57380U 23099BE  26179.76312562 -.00000189  00000+0  26429-5 0  9999",
    "line2": "2 57380  43.0029 305.2159 0001268 289.8290  70.2425 15.27573118164251"
  },
  {
    "name": "STARLINK-6371",
    "noradId": "57381",
    "line1": "1 57381U 23099BF  26179.75539638  .00000810  00000+0  38973-4 0  9990",
    "line2": "2 57381  43.0039 316.4543 0001286 283.0020  77.0688 15.27577351164137"
  },
  {
    "name": "STARLINK-30240",
    "noradId": "57404",
    "line1": "1 57404U 23102A   26179.74187464  .00001195  00000+0  52938-4 0  9990",
    "line2": "2 57404  43.0025 341.4423 0001434 266.9427  93.1261 15.27579819163225"
  },
  {
    "name": "STARLINK-30195",
    "noradId": "57406",
    "line1": "1 57406U 23102C   26179.91668981  .00791823  00000+0  14676-1 0  9997",
    "line2": "2 57406  43.0035 346.3716 0001810 291.4979 332.4458 15.46072255  5810"
  },
  {
    "name": "STARLINK-30207",
    "noradId": "57407",
    "line1": "1 57407U 23102D   26179.81421097  .00002653  00000+0  10593-3 0  9994",
    "line2": "2 57407  43.0046 326.4980 0001218 259.7726 100.2989 15.27565366163414"
  },
  {
    "name": "STARLINK-30205",
    "noradId": "57408",
    "line1": "1 57408U 23102E   26179.50215562  .00002439  00000+0  98118-4 0  9991",
    "line2": "2 57408  43.0069 343.0823 0001160 267.2305  92.8414 15.27587030163189"
  }
]